COSMOS 1933             
1 18958U 88020A   25354.93135875  .00003167  00000+0  15797-3 0  9997
2 18958  82.5136 328.7840 0006221 106.4671 253.7246 15.17171989 38285
SL-3 R/B                
1 19046U 88032B   25355.16294448  .00003750  00000+0  18177-3 0  9990
2 19046  97.5086 333.8253 0027610 144.2253 216.0838 15.18817688 40185
SL-16 R/B               
1 19120U 88039B   25355.13216648  .00000183  00000+0  10925-3 0  9993
2 19120  71.0133 234.6537 0019573 101.8926 258.4396 14.19598422947239
COSMOS 1953             
1 19210U 88050A   25351.75027580  .00004793  00000+0  17925-3 0  9993
2 19210  82.5093 240.5536 0013540  56.0210 304.2313 15.26995692 25270
SL-8 R/B                
1 19257U 88053B   25355.17078214  .00000186  00000+0  68732-4 0  9992
2 19257  74.0472 257.1814 0018961  98.0876  10.5959 14.38863802965306
COSMOS 1975             
1 19573U 88093A   25355.04019692  .00004964  00000+0  18806-3 0  9992
2 19573  82.5190 196.5184 0013057  86.5667 273.7065 15.26578292  7408
SL-14 R/B               
1 19574U 88093B   25354.86876108  .00000385  00000+0  41590-4 0  9995
2 19574  82.5314 116.0390 0019409 301.1068 177.9788 14.85557050989332
SL-16 R/B               
1 19650U 88102B   25355.21728038  .00000260  00000+0  15530-3 0  9995
2 19650  71.0004 316.6052 0012576 137.3260 222.8842 14.16140106915783
INTERCOSMOS 24          
1 20261U 89080A   25355.16551411  .00000529  00000+0  14641-3 0  9994
2 20261  82.6051 155.4748 1188986 114.9826 257.9420 12.59452737656912
SL-14 R/B               
1 20262U 89080C   25355.14485728  .00000285  00000+0  81602-4 0  9991
2 20262  82.5919 223.6253 1230518   4.3821 356.6933 12.50419812650334
DELTA 1 R/B             
1 20323U 89089B   25355.19319357  .00000234  00000+0  66768-4 0  9997
2 20323  97.0745 210.0907 0069470  11.8707 348.4109 14.50578265884353
ARIANE 40 R/B           
1 20443U 90005H   25355.14803992  .00000206  00000+0  78990-4 0  9997
2 20443  98.3232  53.0881 0011272  83.1050 277.1421 14.39804243881501
